ONEWEB-0456             
1 51646U 22012AA  24205.94085683 -.00000602  00000+0 -17616-2 0  9997
2 51646  87.8954 174.1199 0001835  78.9842 281.1492 13.10371128118556
ONEWEB-0457             
1 51647U 22012AB  24205.84129253  .00000224  00000+0  60465-3 0  9998
2 51647  87.8957 174.1646 0002171  89.6974 270.4402 13.10369841118546
ONEWEB-0458             
1 51648U 22012AC  24205.93920962 -.00000597  00000+0 -17458-2 0  9993
2 51648  87.8962 174.1618 0002227  81.0879 279.0500 13.10371556118511
ONEWEB-0461             
1 51649U 22012AD  24205.77937751 -.00000054  00000+0 -17242-3 0  9990
2 51649  87.9188 143.9298 0002167  80.5670 279.5707 13.17649154122571
ONEWEB-0463             
1 51650U 22012AE  24205.83753955  .00000005  00000+0 -19398-4 0  9991
2 51650  87.9192 143.9670 0002168  79.9981 280.1395 13.17648249122362
ONEWEB-0464             
1 51651U 22012AF  24205.93589321 -.00000463  00000+0 -13638-2 0  9995
2 51651  87.8964 174.1512 0001893  74.2321 285.9015 13.10371862118533
ONEWEB-0468             
1 51652U 22012AG  24205.94255440 -.00000026  00000+0 -10972-3 0  9993
2 51652  87.8949 174.1433 0001839  81.9234 278.2102 13.10368217118517
ONEWEB-0473             
1 51653U 22012AH  24206.00395821 -.00000200  00000+0 -60967-3 0  9993
2 51653  87.8959 174.1334 0002131  79.6381 280.4986 13.10370072119824
ONEWEB-0474             
1 51654U 22012AJ  24205.99566405  .00000307  00000+0  84204-3 0  9995
2 51654  87.8951 174.1287 0002121  76.0061 284.1302 13.10369793119808
ONEWEB-0475             
1 51655U 22012AK  24205.54511055  .00000074  00000+0  15853-3 0  9993
2 51655  87.9192 144.0038 0002268  68.5234 291.6139 13.17649450122349
ONEWEB-0490             
1 54113U 22138A   24205.41092032  .00000064  00000+0  12720-3 0  9998
2 54113  87.9123  83.0124 0001744  74.4826 285.6499 13.19725404 85328
ONEWEB-0492             
1 54114U 22138B   24205.36039307  .00000557  00000+0  13598-2 0  9999
2 54114  87.9125  83.0279 0001748  70.0627 290.0694 13.19723104 85329
ONEWEB-0495             
1 54115U 22138C   24205.41408664  .00000070  00000+0  14171-3 0  9991
2 54115  87.9128  83.0282 0002005  54.0313 306.1006 13.19726377 85318
ONEWEB-0497             
1 54116U 22138D   24206.18488123  .00000002  00000+0 -27967-4 0  9999
2 54116  87.9123  82.8612 0001751  74.1383 285.9943 13.19727572 86273
ONEWEB-0499             
1 54117U 22138E   24206.16751043  .00000064  00000+0  12643-3 0  9993
2 54117  87.9129  82.8672 0002259  75.2100 284.9283 13.19724633 86281
ONEWEB-0500             
1 54118U 22138F   24205.41250185  .00000065  00000+0  13064-3 0  9991
2 54118  87.9125  83.0130 0001680  76.9177 283.2143 13.19726312 85326
ONEWEB-0501             
1 54119U 22138G   24206.20069476  .00000011  00000+0 -59907-5 0  9991
2 54119  87.9125  82.8535 0001906  61.3866 298.7458 13.19725609 86270
ONEWEB-0502             
1 54120U 22138H   24206.18645761 -.00000008  00000+0 -51874-4 0  9998
2 54120  87.9121  82.8451 0001949  69.8062 290.3280 13.19727535 86296
ONEWEB-0503             
1 54121U 22138J   24205.41723635  .00000133  00000+0  30009-3 0  9994
2 54121  87.9120  83.0053 0002226  83.0957 277.0429 13.19727668 85313
ONEWEB-0504             
1 54122U 22138K   24205.40460757  .00000136  00000+0  30657-3 0  9999
2 54122  87.9124  83.0146 0002092  71.9404 288.1957 13.19726414 85323
ONEWEB-0505             
1 54123U 22138L   24205.62889726  .00000023  00000+0  25632-4 0  9998
2 54123  87.9124  82.9642 0002134  58.7683 301.3658 13.19725846 85337
ONEWEB-0506             
1 54124U 22138M   24205.37617101  .00000085  00000+0  17971-3 0  9991
2 54124  87.9124  83.0116 0001884  72.0030 288.1308 13.19725730 85293
ONEWEB-0507             
1 54125U 22138N   24205.39670692  .00000023  00000+0  25545-4 0  9997
2 54125  87.9132  83.0317 0001746  68.4149 291.7170 13.19726192 85349
ONEWEB-0508             
1 54126U 22138P   24205.62100393  .00000031  00000+0  45907-4 0  9993
2 54126  87.9135  82.9782 0001682  62.8593 297.2711 13.19726482 85352
ONEWEB-0509             
1 54127U 22138Q   24205.36827525  .00000074  00000+0  15299-3 0  9995
2 54127  87.9121  83.0143 0001872  73.7664 286.3675 13.19727194 85294
ONEWEB-0510             
1 54128U 22138R   24206.10836188  .00000019  00000+0  15893-4 0  9994
2 54128  87.9185  52.3136 0001508  97.4674 262.6630 13.20773425 88691
ONEWEB-0511             
1 54129U 22138S   24206.19909759  .00000057  00000+0  10876-3 0  9996
2 54129  87.9123  82.8513 0002293  76.6295 283.5093 13.19727579 86309
ONEWEB-0512             
1 54130U 22138T   24206.19120418  .00000010  00000+0 -80843-5 0  9998
2 54130  87.9132  82.8719 0002121  63.7410 296.3940 13.19726542 86273
ONEWEB-0513             
1 54131U 22138U   24206.16196246  .00000107  00000+0  23399-3 0  9995
2 54131  87.9132  82.8710 0002228  67.2668 292.8699 13.19722969 86155
ONEWEB-0514             
1 54132U 22138V   24205.60046734  .00000073  00000+0  14881-3 0  9998
2 54132  87.9125  82.9777 0001834  81.1228 279.0113 13.19725561 86217
ONEWEB-0515             
1 54133U 22138W   24205.94422488 -.00000101  00000+0 -28075-3 0  9994
2 54133  87.9182  52.3260 0001258 123.9660 236.1593 13.20770281 87795
ONEWEB-0516             
1 54134U 22138X   24205.42355386  .00000053  00000+0  10001-3 0  9994
2 54134  87.9132  83.0267 0001730  75.9780 284.1545 13.19724431 85324
ONEWEB-0517             
1 54135U 22138Y   24205.63047620  .00000038  00000+0  62754-4 0  9993
2 54135  87.9126  82.9677 0002236  82.1862 277.9524 13.19724788 85359
ONEWEB-0518             
1 54136U 22138Z   24205.19452899  .00000009  00000+0 -10729-4 0  9997
2 54136  87.9130  83.0704 0001912  78.5143 281.6204 13.19726204 85294
ONEWEB-0519             
1 54137U 22138AA  24206.20541791  .00000084  00000+0  17692-3 0  9998
2 54137  87.9125  82.8481 0002211  70.6419 289.4953 13.19726124 86301
ONEWEB-0520             
1 54138U 22138AB  24206.16435223  .00000089  00000+0  19071-3 0  9994
2 54138  87.9125  82.8592 0001882  63.6269 296.5057 13.19726308 86288
ONEWEB-0521             
1 54139U 22138AC  24206.19751793  .00000085  00000+0  17897-3 0  9991
2 54139  87.9125  82.8443 0002156  79.8261 280.3115 13.19727121 86268
ONEWEB-0522             
1 54140U 22138AD  24205.41881915  .00000060  00000+0  11686-3 0  9990
2 54140  87.9121  83.0025 0001703  74.6997 285.4324 13.19726464 85302
ONEWEB-0523             
1 54141U 22138AE  24206.08310534  .00000061  00000+0  11880-3 0  9996
2 54141  87.9190  52.3262 0001970 113.8050 246.3290 13.20773479 88685
ONEWEB-0524             
1 54142U 22138AF  24205.54177224  .00000034  00000+0  50692-4 0  9999
2 54142  87.9184  52.4377 0000842 113.5659 246.5562 13.20770083 87744
ONEWEB-0525             
1 54143U 22138AG  24205.36195348  .00000100  00000+0  21653-3 0  9995
2 54143  87.9124  83.0234 0001884  67.9228 292.2105 13.19727918 85311
ONEWEB-0526             
1 54144U 22138AH  24205.62257909  .00000054  00000+0  10140-3 0  9994
2 54144  87.9124  82.9660 0001753  74.3170 285.8156 13.19724810 85329
ONEWEB-0529             
1 54145U 22138AJ  24205.62573768  .00000057  00000+0  10990-3 0  9995
2 54145  87.9131  82.9834 0001798  66.8604 293.2718 13.19723658 85346
ONEWEB-0531             
1 54146U 22138AK  24206.13362322  .00000073  00000+0  14878-3 0  9992
2 54146  87.9185  52.3107 0001603 122.9412 237.1876 13.20770986 88697
ONEWEB-0535             
1 54147U 22138AL  24206.18961457 -.00000011  00000+0 -59586-4 0  9992
2 54147  87.9123  82.8508 0001697  87.1323 273.0004 13.19727782 86301
ONEWEB-0536             
1 54148U 22138AM  24205.59069585  .00000032  00000+0  45945-4 0  9993
2 54148  87.9184  52.4678 0002175 114.4134 245.7227 13.20772517 87746
ONEWEB-0527             
1 54642U 22166A   24205.94367352  .00000034  00000+0  51071-4 0  9994
2 54642  87.9285  21.9986 0001692  88.9726 271.1601 13.21826526 79959
ONEWEB-0528             
1 54643U 22166B   24205.42009803  .00000014  00000+0  22875-5 0  9991
2 54643  87.9287  22.0911 0001726  84.9867 275.1464 13.21827402 79890
ONEWEB-0539             
1 54644U 22166C   24205.91055081  .00000078  00000+0  15795-3 0  9996
2 54644  87.9293  21.9960 0002007  89.0832 271.0532 13.21827369 79951
ONEWEB-0540             
1 54645U 22166D   24204.99668091  .00000110  00000+0  23390-3 0  9992
2 54645  87.9284  22.1944 0002034  85.9331 274.2035 13.21826325 79826
ONEWEB-0542             
1 54646U 22166E   24205.92002559  .00000050  00000+0  89066-4 0  9994
2 54646  87.9288  21.9939 0002323  92.7991 267.3408 13.21825534 79953
ONEWEB-0545             
1 54647U 22166F   24206.03829501 -.00000013  00000+0 -64143-4 0  9992
2 54647  87.9276  21.9875 0002312  84.4379 275.7018 13.21826447 80402
ONEWEB-0580             
1 54648U 22166G   24205.93578399  .00000026  00000+0  30444-4 0  9996
2 54648  87.9287  21.9794 0002378  94.1273 266.0133 13.21827027 79963
ONEWEB-0582             
1 54649U 22166H   24206.05406466  .00000069  00000+0  13476-3 0  9998
2 54649  87.9281  21.9922 0002509  96.6942 263.4478 13.21826292 80426
ONEWEB-0583             
1 54650U 22166J   24205.98940274  .00000049  00000+0  88284-4 0  9999
2 54650  87.9283  22.0045 0001859  88.8466 271.2881 13.21826936 80430
ONEWEB-0584             
1 54651U 22166K   24206.00990898  .00000024  00000+0  25793-4 0  9990
2 54651  87.9286  21.9679 0002177  92.4966 267.6417 13.21826490 80412
ONEWEB-0585             
1 54652U 22166L   24205.50525813  .00000067  00000+0  13178-3 0  9996
2 54652  87.9287  22.0778 0001751  90.1494 269.9840 13.21827080 79884
ONEWEB-0586             
1 54653U 22166M   24206.04774886  .00000051  00000+0  92416-4 0  9999
2 54653  87.9281  21.9825 0002096  89.0757 271.0617 13.21824320 80424
ONEWEB-0587             
1 54654U 22166N   24205.98150644 -.00000905  00000+0 -22218-2 0  9993
2 54654  87.9279  21.9497 0001680 100.0201 260.1122 13.21828871 80563
